{
  "norad_id": 64765,
  "name": "STARLINK-34566",
  "history": [
    {
      "epoch": "2026-04-15T04:51:50.712192Z",
      "apogee_km": 476.03179871507655,
      "perigee_km": 474.4070049793281,
      "latitude_deg": 2.646981191869957e-06,
      "longitude_deg": 156.70338350810465,
      "height_km": 475.85123526669935,
      "semi_major_axis_km": 6853.3564018472025,
      "eccentricity": 0.00011854,
      "inclination_deg": 53.1591,
      "raan_deg": 73.0328,
      "arg_perigee_deg": 70.861,
      "mean_anomaly_deg": 289.2519,
      "mean_motion_rev_day": 15.30198549
    },
    {
      "epoch": "2026-04-16T04:22:38.536608Z",
      "apogee_km": 475.8098515909878,
      "perigee_km": 474.5844754425507,
      "latitude_deg": 4.405523053893878e-05,
      "longitude_deg": 158.48859161853215,
      "height_km": 475.9569760198361,
      "semi_major_axis_km": 6853.334163516769,
      "eccentricity": 8.94e-05,
      "inclination_deg": 53.1582,
      "raan_deg": 68.4829,
      "arg_perigee_deg": 76.9252,
      "mean_anomaly_deg": 283.1849,
      "mean_motion_rev_day": 15.30205997
    },
    {
      "epoch": "2026-04-17T21:08:01.826016Z",
      "apogee_km": 476.1204789214398,
      "perigee_km": 474.3327104941245,
      "latitude_deg": 1.6513657628951948e-05,
      "longitude_deg": -102.41977425506799,
      "height_km": 475.9112520857616,
      "semi_major_axis_km": 6853.363594707782,
      "eccentricity": 0.00013043,
      "inclination_deg": 53.1592,
      "raan_deg": 60.5954,
      "arg_perigee_deg": 76.1924,
      "mean_anomaly_deg": 283.9222,
      "mean_motion_rev_day": 15.3019614
    },
    {
      "epoch": "2026-04-18T03:24:14.508576Z",
      "apogee_km": 476.1489539612803,
      "perigee_km": 474.2420827213764,
      "latitude_deg": -3.0676331073336293e-06,
      "longitude_deg": 162.05395975601638,
      "height_km": 476.0599170370744,
      "semi_major_axis_km": 6853.332518341328,
      "eccentricity": 0.00013912,
      "inclination_deg": 53.1602,
      "raan_deg": 59.3795,
      "arg_perigee_deg": 87.9843,
      "mean_anomaly_deg": 272.1317,
      "mean_motion_rev_day": 15.30206548
    },
    {
      "epoch": "2026-04-19T06:03:08.405568Z",
      "apogee_km": 476.13795615852905,
      "perigee_km": 474.2998861004826,
      "latitude_deg": -2.5496346820810855e-05,
      "longitude_deg": 116.07886493516853,
      "height_km": 476.1482894334709,
      "semi_major_axis_km": 6853.355921129506,
      "eccentricity": 0.0001341,
      "inclination_deg": 53.1608,
      "raan_deg": 54.2234,
      "arg_perigee_deg": 91.9518,
      "mean_anomaly_deg": 268.1636,
      "mean_motion_rev_day": 15.3019871
    },
    {
      "epoch": "2026-04-20T13:24:13.286304Z",
      "apogee_km": 476.73555189360013,
      "perigee_km": 473.73733807888675,
      "latitude_deg": -2.171652911250825e-05,
      "longitude_deg": -1.5464252534730245,
      "height_km": 476.183944871791,
      "semi_major_axis_km": 6853.373444986243,
      "eccentricity": 0.00021874,
      "inclination_deg": 53.1618,
      "raan_deg": 48.156,
      "arg_perigee_deg": 91.9322,
      "mean_anomaly_deg": 268.1929,
      "mean_motion_rev_day": 15.30192841
    },
    {
      "epoch": "2026-04-21T12:55:00.834240Z",
      "apogee_km": 476.78123381017303,
      "perigee_km": 473.62321509554477,
      "latitude_deg": -2.0088633113521242e-05,
      "longitude_deg": 0.23710404423060968,
      "height_km": 476.20078469093,
      "semi_major_axis_km": 6853.339224452859,
      "eccentricity": 0.0002304,
      "inclination_deg": 53.1622,
      "raan_deg": 43.6033,
      "arg_perigee_deg": 93.6939,
      "mean_anomaly_deg": 266.4325,
      "mean_motion_rev_day": 15.30204302
    },
    {
      "epoch": "2026-04-22T12:25:48.694944Z",
      "apogee_km": 475.6245377619516,
      "perigee_km": 474.78143987652584,
      "latitude_deg": -1.0895078191946173e-05,
      "longitude_deg": 2.0234321277385154,
      "height_km": 476.1247368946076,
      "semi_major_axis_km": 6853.339988819238,
      "eccentricity": 6.151e-05,
      "inclination_deg": 53.1618,
      "raan_deg": 39.0547,
      "arg_perigee_deg": 93.0742,
      "mean_anomaly_deg": 267.0329,
      "mean_motion_rev_day": 15.30204046
    },
    {
      "epoch": "2026-04-23T11:56:36.539232Z",
      "apogee_km": 475.95448088418107,
      "perigee_km": 474.42331081252996,
      "latitude_deg": -3.2705221898488305e-05,
      "longitude_deg": 3.807406114023969,
      "height_km": 476.03117900703376,
      "semi_major_axis_km": 6853.325895848355,
      "eccentricity": 0.00011171,
      "inclination_deg": 53.1625,
      "raan_deg": 34.5037,
      "arg_perigee_deg": 85.7841,
      "mean_anomaly_deg": 274.3287,
      "mean_motion_rev_day": 15.30208766
    }
  ]
}